CCSDS_OMM_VERS = 2.0
CREATION_DATE  = 
ORIGINATOR     = 

OBJECT_NAME    = KUIPER-00154
OBJECT_ID      = 2025-228Y
CENTER_NAME    = EARTH
REF_FRAME      = TEME
TIME_SYSTEM    = UTC
MEAN_ELEMENT_THEORY = SGP/SGP4

EPOCH          = 2025-11-11T00:17:11.122656
MEAN_MOTION    = 15.35107578
ECCENTRICITY   = .00071308
INCLINATION    = 51.8825
RA_OF_ASC_NODE = 173.3994
ARG_OF_PERICENTER = 235.1816
MEAN_ANOMALY   = 124.8499

EPHEMERIS_TYPE = 0
CLASSIFICATION_TYPE = U
NORAD_CAT_ID   = 65969
ELEMENT_SET_NO = 999
REV_AT_EPOCH   = 554
BSTAR          = .11813732E-2
MEAN_MOTION_DOT = .40731E-3
MEAN_MOTION_DDOT = 0

CCSDS_OMM_VERS = 2.0
CREATION_DATE  = 
ORIGINATOR     = 

OBJECT_NAME    = KUIPER-00157
OBJECT_ID      = 2025-228Z
CENTER_NAME    = EARTH
REF_FRAME      = TEME
TIME_SYSTEM    = UTC
MEAN_ELEMENT_THEORY = SGP/SGP4

EPOCH          = 2025-11-10T15:06:59.065920
MEAN_MOTION    = 15.34749273
ECCENTRICITY   = .00051883
INCLINATION    = 51.8754
RA_OF_ASC_NODE = 175.3423
ARG_OF_PERICENTER = 244.9772
MEAN_ANOMALY   = 115.0675

EPHEMERIS_TYPE = 0
CLASSIFICATION_TYPE = U
NORAD_CAT_ID   = 65970
ELEMENT_SET_NO = 999
REV_AT_EPOCH   = 548
BSTAR          = .11992629E-2
MEAN_MOTION_DOT = .40868E-3
MEAN_MOTION_DDOT = 0

CCSDS_OMM_VERS = 2.0
CREATION_DATE  = 
ORIGINATOR     = 

OBJECT_NAME    = STRIX-5
OBJECT_ID      = 2025-229A
CENTER_NAME    = EARTH
REF_FRAME      = TEME
TIME_SYSTEM    = UTC
MEAN_ELEMENT_THEORY = SGP/SGP4

EPOCH          = 2025-11-11T05:58:39.258336
MEAN_MOTION    = 15.01852583
ECCENTRICITY   = .00382603
INCLINATION    = 41.9286
RA_OF_ASC_NODE = 53.7976
ARG_OF_PERICENTER = 65.7119
MEAN_ANOMALY   = 294.7695

EPHEMERIS_TYPE = 0
CLASSIFICATION_TYPE = U
NORAD_CAT_ID   = 65971
ELEMENT_SET_NO = 999
REV_AT_EPOCH   = 417
BSTAR          = .71862824E-3
MEAN_MOTION_DOT = .9508E-4
MEAN_MOTION_DDOT = 0

CCSDS_OMM_VERS = 2.0
CREATION_DATE  = 
ORIGINATOR     = 

OBJECT_NAME    = ELECTRON R/B
OBJECT_ID      = 2025-229B
CENTER_NAME    = EARTH
REF_FRAME      = TEME
TIME_SYSTEM    = UTC
MEAN_ELEMENT_THEORY = SGP/SGP4

EPOCH          = 2025-11-08T01:21:47.928672
MEAN_MOTION    = 15.01793365
ECCENTRICITY   = .00385851
INCLINATION    = 41.9280
RA_OF_ASC_NODE = 71.4275
ARG_OF_PERICENTER = 44.3366
MEAN_ANOMALY   = 316.0539

EPHEMERIS_TYPE = 0
CLASSIFICATION_TYPE = U
NORAD_CAT_ID   = 65972
ELEMENT_SET_NO = 999
REV_AT_EPOCH   = 367
BSTAR          = .57452653E-3
MEAN_MOTION_DOT = .755E-4
MEAN_MOTION_DDOT = 0

CCSDS_OMM_VERS = 2.0
CREATION_DATE  = 
ORIGINATOR     = 

OBJECT_NAME    = ELECTRON KICK STAGE R/B
OBJECT_ID      = 2025-229C
CENTER_NAME    = EARTH
REF_FRAME      = TEME
TIME_SYSTEM    = UTC
MEAN_ELEMENT_THEORY = SGP/SGP4

EPOCH          = 2025-11-11T07:11:37.612896
MEAN_MOTION    = 15.02773246
ECCENTRICITY   = .00393725
INCLINATION    = 41.9847
RA_OF_ASC_NODE = 53.4603
ARG_OF_PERICENTER = 65.9537
MEAN_ANOMALY   = 294.5402

EPHEMERIS_TYPE = 0
CLASSIFICATION_TYPE = U
NORAD_CAT_ID   = 65973
ELEMENT_SET_NO = 999
REV_AT_EPOCH   = 415
BSTAR          = .76649646E-3
MEAN_MOTION_DOT = .10419E-3
MEAN_MOTION_DDOT = 0

CCSDS_OMM_VERS = 2.0
CREATION_DATE  = 
ORIGINATOR     = 

OBJECT_NAME    = SDA_1664
OBJECT_ID      = 2025-230A
CENTER_NAME    = EARTH
REF_FRAME      = TEME
TIME_SYSTEM    = UTC
MEAN_ELEMENT_THEORY = SGP/SGP4

EPOCH          = 2025-11-11T07:23:08.102688
MEAN_MOTION    = 13.84698549
ECCENTRICITY   = .00031967
INCLINATION    = 81.3000
RA_OF_ASC_NODE = 53.7612
ARG_OF_PERICENTER = 48.6384
MEAN_ANOMALY   = 311.5047

EPHEMERIS_TYPE = 0
CLASSIFICATION_TYPE = U
NORAD_CAT_ID   = 65974
ELEMENT_SET_NO = 999
REV_AT_EPOCH   = 365
BSTAR          = .32209856E-3
MEAN_MOTION_DOT = .374E-5
MEAN_MOTION_DDOT = 0

CCSDS_OMM_VERS = 2.0
CREATION_DATE  = 
ORIGINATOR     = 

OBJECT_NAME    = SDA_1665
OBJECT_ID      = 2025-230B
CENTER_NAME    = EARTH
REF_FRAME      = TEME
TIME_SYSTEM    = UTC
MEAN_ELEMENT_THEORY = SGP/SGP4

EPOCH          = 2025-11-11T07:03:12.572064
MEAN_MOTION    = 13.85428696
ECCENTRICITY   = .00050196
INCLINATION    = 81.3037
RA_OF_ASC_NODE = 53.7567
ARG_OF_PERICENTER = 90.3599
MEAN_ANOMALY   = 269.8134

EPHEMERIS_TYPE = 0
CLASSIFICATION_TYPE = U
NORAD_CAT_ID   = 65975
ELEMENT_SET_NO = 999
REV_AT_EPOCH   = 365
BSTAR          = .32233788E-3
MEAN_MOTION_DOT = .379E-5
MEAN_MOTION_DDOT = 0

CCSDS_OMM_VERS = 2.0
CREATION_DATE  = 
ORIGINATOR     = 

OBJECT_NAME    = SDA_1666
OBJECT_ID      = 2025-230C
CENTER_NAME    = EARTH
REF_FRAME      = TEME
TIME_SYSTEM    = UTC
MEAN_ELEMENT_THEORY = SGP/SGP4

EPOCH          = 2025-11-11T07:25:05.071008
MEAN_MOTION    = 13.84627297
ECCENTRICITY   = .00028261
INCLINATION    = 81.3009
RA_OF_ASC_NODE = 53.7657
ARG_OF_PERICENTER = 46.2621
MEAN_ANOMALY   = 313.8770

EPHEMERIS_TYPE = 0
CLASSIFICATION_TYPE = U
NORAD_CAT_ID   = 65976
ELEMENT_SET_NO = 999
REV_AT_EPOCH   = 365
BSTAR          = .30756973E-3
MEAN_MOTION_DOT = .357E-5
MEAN_MOTION_DDOT = 0

CCSDS_OMM_VERS = 2.0
CREATION_DATE  = 
ORIGINATOR     = 

OBJECT_NAME    = SDA_1667
OBJECT_ID      = 2025-230D
CENTER_NAME    = EARTH
REF_FRAME      = TEME
TIME_SYSTEM    = UTC
MEAN_ELEMENT_THEORY = SGP/SGP4

EPOCH          = 2025-11-11T07:18:13.636800
MEAN_MOTION    = 13.84878258
ECCENTRICITY   = .00037687
INCLINATION    = 81.3005
RA_OF_ASC_NODE = 53.7581
ARG_OF_PERICENTER = 59.2641
MEAN_ANOMALY   = 300.8887

EPHEMERIS_TYPE = 0
CLASSIFICATION_TYPE = U
NORAD_CAT_ID   = 65977
ELEMENT_SET_NO = 999
REV_AT_EPOCH   = 365
BSTAR          = .31818555E-3
MEAN_MOTION_DOT = .371E-5
MEAN_MOTION_DDOT = 0

CCSDS_OMM_VERS = 2.0
CREATION_DATE  = 
ORIGINATOR     = 

OBJECT_NAME    = SDA_1668
OBJECT_ID      = 2025-230E
CENTER_NAME    = EARTH
REF_FRAME      = TEME
TIME_SYSTEM    = UTC
MEAN_ELEMENT_THEORY = SGP/SGP4

EPOCH          = 2025-11-11T07:02:04.606368
MEAN_MOTION    = 13.85470564
ECCENTRICITY   = .0004947
INCLINATION    = 81.3021
RA_OF_ASC_NODE = 53.7464
ARG_OF_PERICENTER = 93.1699
MEAN_ANOMALY   = 267.0024

EPHEMERIS_TYPE = 0
CLASSIFICATION_TYPE = U
NORAD_CAT_ID   = 65978
ELEMENT_SET_NO = 999
REV_AT_EPOCH   = 365
BSTAR          = .34985293E-3
MEAN_MOTION_DOT = .411E-5
MEAN_MOTION_DDOT = 0

CCSDS_OMM_VERS = 2.0
CREATION_DATE  = 
ORIGINATOR     = 

OBJECT_NAME    = SDA_1669
OBJECT_ID      = 2025-230F
CENTER_NAME    = EARTH
REF_FRAME      = TEME
TIME_SYSTEM    = UTC
MEAN_ELEMENT_THEORY = SGP/SGP4

EPOCH          = 2025-11-11T07:08:25.963008
MEAN_MOTION    = 13.85237310
ECCENTRICITY   = .00049875
INCLINATION    = 81.3023
RA_OF_ASC_NODE = 53.7530
ARG_OF_PERICENTER = 80.3992
MEAN_ANOMALY   = 279.7729

EPHEMERIS_TYPE = 0
CLASSIFICATION_TYPE = U
NORAD_CAT_ID   = 65979
ELEMENT_SET_NO = 999
REV_AT_EPOCH   = 365
BSTAR          = .33759493E-3
MEAN_MOTION_DOT = .395E-5
MEAN_MOTION_DDOT = 0

CCSDS_OMM_VERS = 2.0
CREATION_DATE  = 
ORIGINATOR     = 

OBJECT_NAME    = SDA_1670
OBJECT_ID      = 2025-230G
CENTER_NAME    = EARTH
REF_FRAME      = TEME
TIME_SYSTEM    = UTC
MEAN_ELEMENT_THEORY = SGP/SGP4

EPOCH          = 2025-11-11T07:19:59.367072
MEAN_MOTION    = 13.84814216
ECCENTRICITY   = .00034323
INCLINATION    = 81.3000
RA_OF_ASC_NODE = 53.7584
ARG_OF_PERICENTER = 55.5589
MEAN_ANOMALY   = 304.5892

EPHEMERIS_TYPE = 0
CLASSIFICATION_TYPE = U
NORAD_CAT_ID   = 65980
ELEMENT_SET_NO = 999
REV_AT_EPOCH   = 365
BSTAR          = .36096539E-3
MEAN_MOTION_DOT = .418E-5
MEAN_MOTION_DDOT = 0

