KUIPER-00154            
1 65969U 25228Y   25315.01193429  .00040731  00000+0  11814-2 0  9990
2 65969  51.8825 173.3994 0007130 235.1816 124.8499 15.35107578  5542
KUIPER-00157            
1 65970U 25228Z   25314.62985030  .00040868  00000+0  11993-2 0  9994
2 65970  51.8754 175.3423 0005188 244.9772 115.0675 15.34749273  5488
STRIX-5                 
1 65971U 25229A   25315.24906549  .00009508  00000+0  71863-3 0  9992
2 65971  41.9286  53.7976 0038260  65.7119 294.7695 15.01852583  4177
ELECTRON R/B            
1 65972U 25229B   25312.05680473  .00007550  00000+0  57453-3 0  9998
2 65972  41.9280  71.4275 0038585  44.3366 316.0539 15.01793365  3679
ELECTRON KICK STAGE R/B 
1 65973U 25229C   25315.29974089  .00010419  00000+0  76650-3 0  9995
2 65973  41.9847  53.4603 0039372  65.9537 294.5402 15.02773246  4158
SDA_1664                
1 65974U 25230A   25315.30773267  .00000374  00000+0  32210-3 0  9998
2 65974  81.3000  53.7612 0003196  48.6384 311.5047 13.84698549  3653
SDA_1665                
1 65975U 25230B   25315.29389551  .00000379  00000+0  32234-3 0  9997
2 65975  81.3037  53.7567 0005019  90.3599 269.8134 13.85428696  3658
SDA_1666                
1 65976U 25230C   25315.30908647  .00000357  00000+0  30757-3 0  9997
2 65976  81.3009  53.7657 0002826  46.2621 313.8770 13.84627297  3650
SDA_1667                
1 65977U 25230D   25315.30432450  .00000371  00000+0  31819-3 0  9998
2 65977  81.3005  53.7581 0003768  59.2641 300.8887 13.84878258  3655
SDA_1668                
1 65978U 25230E   25315.29310887  .00000411  00000+0  34985-3 0  9998
2 65978  81.3021  53.7464 0004947  93.1699 267.0024 13.85470564  3650
SDA_1669                
1 65979U 25230F   25315.29752272  .00000395  00000+0  33759-3 0  9996
2 65979  81.3023  53.7530 0004987  80.3992 279.7729 13.85237310  3657
SDA_1670                
1 65980U 25230G   25315.30554823  .00000418  00000+0  36097-3 0  9996
2 65980  81.3000  53.7584 0003432  55.5589 304.5892 13.84814216  3656
